[{"OBJECT_NAME":"STARLINK-31166","OBJECT_ID":"2024-012C","EPOCH":"2026-03-09T06:30:15.679584","MEAN_MOTION":15.27574391,"ECCENTRICITY":0.00014161,"INCLINATION":43.0012,"RA_OF_ASC_NODE":167.4663,"ARG_OF_PERICENTER":296.9428,"MEAN_ANOMALY":63.1279,"EPHEMERIS_TYPE":0,"CLASSIFICATION_TYPE":"U","NORAD_CAT_ID":58789,"ELEMENT_SET_NO":999,"REV_AT_EPOCH":12117,"BSTAR":1.39351e-7,"MEAN_MOTION_DOT":-2.58e-6,"MEAN_MOTION_DDOT":0},{"OBJECT_NAME":"REAL","OBJECT_ID":"2025-154G","EPOCH":"2026-03-09T17:20:09.670560","MEAN_MOTION":15.28408058,"ECCENTRICITY":0.00018528,"INCLINATION":97.4133,"RA_OF_ASC_NODE":137.2581,"ARG_OF_PERICENTER":118.5876,"MEAN_ANOMALY":241.555,"EPHEMERIS_TYPE":0,"CLASSIFICATION_TYPE":"U","NORAD_CAT_ID":64875,"ELEMENT_SET_NO":999,"REV_AT_EPOCH":3483,"BSTAR":0.0008290401,"MEAN_MOTION_DOT":0.00022901,"MEAN_MOTION_DDOT":0}]
